STARLINK-35347          
1 65907U 25224AB  25301.66674769 -.02048331  00000+0 -32918-1 0  9990
2 65907  53.1593 266.6915 0001346 105.7302 163.9858 15.55574999  4645
STARLINK-35329          
1 65908U 25224AC  25301.66674769 -.02044810  00000+0 -32857-1 0  9991
2 65908  53.1590 266.6994 0001389 109.4320 156.4509 15.55572364  4653
STARLINK-35387          
1 65909U 25224AD  25301.66674769 -.02044418  00000+0 -32853-1 0  9992
2 65909  53.1593 266.6873 0001330 109.3492 162.2863 15.55570912  4619
STARLINK-35523          
1 65910U 25225A   25301.66674769 -.01936174  00000+0 -18597-1 0  9992
2 65910  53.1599  62.1928 0001273  70.0143 116.5010 15.68986349  4187
STARLINK-35160          
1 65911U 25225B   25301.66674769 -.01925637  00000+0 -18491-1 0  9998
2 65911  53.1595  62.1892 0001277  71.3596 117.0804 15.68976284  4133
STARLINK-35508          
1 65912U 25225C   25301.66674769 -.01935676  00000+0 -18592-1 0  9995
2 65912  53.1600  62.1840 0001245  69.7615 120.5876 15.68986093  4139
STARLINK-35472          
1 65913U 25225D   25301.66674769 -.01939039  00000+0 -18626-1 0  9991
2 65913  53.1600  62.1803 0001213  68.9542 123.3091 15.68989356  4173
STARLINK-35524          
1 65914U 25225E   25301.66674769 -.01942165  00000+0 -18657-1 0  9990
2 65914  53.1596  62.1768 0001357  76.2437 117.9352 15.68992284  4186
STARLINK-35539          
1 65915U 25225F   25301.66674769 -.02475939  00000+0 -36410-1 0  9999
2 65915  53.1593  62.3144 0001418  64.7376  61.5733 15.58606480  4137
STARLINK-35521          
1 65916U 25225G   25301.66674769 -.01942158  00000+0 -18657-1 0  9994
2 65916  53.1603  62.1678 0001356  75.2321 122.7801 15.68992483  4181
STARLINK-35478          
1 65917U 25225H   25301.66674769 -.01921093  00000+0 -18447-1 0  9997
2 65917  53.1599  62.1599 0000899  75.2744 126.5856 15.68972685  4137
STARLINK-35516          
1 65918U 25225J   25301.66674769 -.01941032  00000+0 -18646-1 0  9994
2 65918  53.1599  62.1641 0001254  69.2460 130.6826 15.68991737  4187
