CCSDS_OMM_VERS = 2.0
CREATION_DATE  = 
ORIGINATOR     = 

OBJECT_NAME    = STARLINK-35347
OBJECT_ID      = 2025-224AB
CENTER_NAME    = EARTH
REF_FRAME      = TEME
TIME_SYSTEM    = UTC
MEAN_ELEMENT_THEORY = SGP/SGP4

EPOCH          = 2025-10-28T16:00:07.000416
MEAN_MOTION    = 15.55574999
ECCENTRICITY   = .00013463
INCLINATION    = 53.1593
RA_OF_ASC_NODE = 266.6915
ARG_OF_PERICENTER = 105.7302
MEAN_ANOMALY   = 163.9858

EPHEMERIS_TYPE = 0
CLASSIFICATION_TYPE = U
NORAD_CAT_ID   = 65907
ELEMENT_SET_NO = 999
REV_AT_EPOCH   = 464
BSTAR          = -.32918022E-1
MEAN_MOTION_DOT = -.2048331E-1
MEAN_MOTION_DDOT = 0

CCSDS_OMM_VERS = 2.0
CREATION_DATE  = 
ORIGINATOR     = 

OBJECT_NAME    = STARLINK-35329
OBJECT_ID      = 2025-224AC
CENTER_NAME    = EARTH
REF_FRAME      = TEME
TIME_SYSTEM    = UTC
MEAN_ELEMENT_THEORY = SGP/SGP4

EPOCH          = 2025-10-28T16:00:07.000416
MEAN_MOTION    = 15.55572364
ECCENTRICITY   = .00013892
INCLINATION    = 53.1590
RA_OF_ASC_NODE = 266.6994
ARG_OF_PERICENTER = 109.4320
MEAN_ANOMALY   = 156.4509

EPHEMERIS_TYPE = 0
CLASSIFICATION_TYPE = U
NORAD_CAT_ID   = 65908
ELEMENT_SET_NO = 999
REV_AT_EPOCH   = 465
BSTAR          = -.32857392E-1
MEAN_MOTION_DOT = -.204481E-1
MEAN_MOTION_DDOT = 0

CCSDS_OMM_VERS = 2.0
CREATION_DATE  = 
ORIGINATOR     = 

OBJECT_NAME    = STARLINK-35387
OBJECT_ID      = 2025-224AD
CENTER_NAME    = EARTH
REF_FRAME      = TEME
TIME_SYSTEM    = UTC
MEAN_ELEMENT_THEORY = SGP/SGP4

EPOCH          = 2025-10-28T16:00:07.000416
MEAN_MOTION    = 15.55570912
ECCENTRICITY   = .00013303
INCLINATION    = 53.1593
RA_OF_ASC_NODE = 266.6873
ARG_OF_PERICENTER = 109.3492
MEAN_ANOMALY   = 162.2863

EPHEMERIS_TYPE = 0
CLASSIFICATION_TYPE = U
NORAD_CAT_ID   = 65909
ELEMENT_SET_NO = 999
REV_AT_EPOCH   = 461
BSTAR          = -.32852789E-1
MEAN_MOTION_DOT = -.2044418E-1
MEAN_MOTION_DDOT = 0

CCSDS_OMM_VERS = 2.0
CREATION_DATE  = 
ORIGINATOR     = 

OBJECT_NAME    = STARLINK-35523
OBJECT_ID      = 2025-225A
CENTER_NAME    = EARTH
REF_FRAME      = TEME
TIME_SYSTEM    = UTC
MEAN_ELEMENT_THEORY = SGP/SGP4

EPOCH          = 2025-10-28T16:00:07.000416
MEAN_MOTION    = 15.68986349
ECCENTRICITY   = .00012739
INCLINATION    = 53.1599
RA_OF_ASC_NODE = 62.1928
ARG_OF_PERICENTER = 70.0143
MEAN_ANOMALY   = 116.5010

EPHEMERIS_TYPE = 0
CLASSIFICATION_TYPE = U
NORAD_CAT_ID   = 65910
ELEMENT_SET_NO = 999
REV_AT_EPOCH   = 418
BSTAR          = -.18597218E-1
MEAN_MOTION_DOT = -.1936174E-1
MEAN_MOTION_DDOT = 0

CCSDS_OMM_VERS = 2.0
CREATION_DATE  = 
ORIGINATOR     = 

OBJECT_NAME    = STARLINK-35160
OBJECT_ID      = 2025-225B
CENTER_NAME    = EARTH
REF_FRAME      = TEME
TIME_SYSTEM    = UTC
MEAN_ELEMENT_THEORY = SGP/SGP4

EPOCH          = 2025-10-28T16:00:07.000416
MEAN_MOTION    = 15.68976284
ECCENTRICITY   = .00012776
INCLINATION    = 53.1595
RA_OF_ASC_NODE = 62.1892
ARG_OF_PERICENTER = 71.3596
MEAN_ANOMALY   = 117.0804

EPHEMERIS_TYPE = 0
CLASSIFICATION_TYPE = U
NORAD_CAT_ID   = 65911
ELEMENT_SET_NO = 999
REV_AT_EPOCH   = 413
BSTAR          = -.18490597E-1
MEAN_MOTION_DOT = -.1925637E-1
MEAN_MOTION_DDOT = 0

CCSDS_OMM_VERS = 2.0
CREATION_DATE  = 
ORIGINATOR     = 

OBJECT_NAME    = STARLINK-35508
OBJECT_ID      = 2025-225C
CENTER_NAME    = EARTH
REF_FRAME      = TEME
TIME_SYSTEM    = UTC
MEAN_ELEMENT_THEORY = SGP/SGP4

EPOCH          = 2025-10-28T16:00:07.000416
MEAN_MOTION    = 15.68986093
ECCENTRICITY   = .00012458
INCLINATION    = 53.1600
RA_OF_ASC_NODE = 62.1840
ARG_OF_PERICENTER = 69.7615
MEAN_ANOMALY   = 120.5876

EPHEMERIS_TYPE = 0
CLASSIFICATION_TYPE = U
NORAD_CAT_ID   = 65912
ELEMENT_SET_NO = 999
REV_AT_EPOCH   = 413
BSTAR          = -.18592232E-1
MEAN_MOTION_DOT = -.1935676E-1
MEAN_MOTION_DDOT = 0

CCSDS_OMM_VERS = 2.0
CREATION_DATE  = 
ORIGINATOR     = 

OBJECT_NAME    = STARLINK-35472
OBJECT_ID      = 2025-225D
CENTER_NAME    = EARTH
REF_FRAME      = TEME
TIME_SYSTEM    = UTC
MEAN_ELEMENT_THEORY = SGP/SGP4

EPOCH          = 2025-10-28T16:00:07.000416
MEAN_MOTION    = 15.68989356
ECCENTRICITY   = .00012133
INCLINATION    = 53.1600
RA_OF_ASC_NODE = 62.1803
ARG_OF_PERICENTER = 68.9542
MEAN_ANOMALY   = 123.3091

EPHEMERIS_TYPE = 0
CLASSIFICATION_TYPE = U
NORAD_CAT_ID   = 65913
ELEMENT_SET_NO = 999
REV_AT_EPOCH   = 417
BSTAR          = -.18626488E-1
MEAN_MOTION_DOT = -.1939039E-1
MEAN_MOTION_DDOT = 0

CCSDS_OMM_VERS = 2.0
CREATION_DATE  = 
ORIGINATOR     = 

OBJECT_NAME    = STARLINK-35524
OBJECT_ID      = 2025-225E
CENTER_NAME    = EARTH
REF_FRAME      = TEME
TIME_SYSTEM    = UTC
MEAN_ELEMENT_THEORY = SGP/SGP4

EPOCH          = 2025-10-28T16:00:07.000416
MEAN_MOTION    = 15.68992284
ECCENTRICITY   = .00013576
INCLINATION    = 53.1596
RA_OF_ASC_NODE = 62.1768
ARG_OF_PERICENTER = 76.2437
MEAN_ANOMALY   = 117.9352

EPHEMERIS_TYPE = 0
CLASSIFICATION_TYPE = U
NORAD_CAT_ID   = 65914
ELEMENT_SET_NO = 999
REV_AT_EPOCH   = 418
BSTAR          = -.18656999E-1
MEAN_MOTION_DOT = -.1942165E-1
MEAN_MOTION_DDOT = 0

CCSDS_OMM_VERS = 2.0
CREATION_DATE  = 
ORIGINATOR     = 

OBJECT_NAME    = STARLINK-35539
OBJECT_ID      = 2025-225F
CENTER_NAME    = EARTH
REF_FRAME      = TEME
TIME_SYSTEM    = UTC
MEAN_ELEMENT_THEORY = SGP/SGP4

EPOCH          = 2025-10-28T16:00:07.000416
MEAN_MOTION    = 15.58606480
ECCENTRICITY   = .00014184
INCLINATION    = 53.1593
RA_OF_ASC_NODE = 62.3144
ARG_OF_PERICENTER = 64.7376
MEAN_ANOMALY   = 61.5733

EPHEMERIS_TYPE = 0
CLASSIFICATION_TYPE = U
NORAD_CAT_ID   = 65915
ELEMENT_SET_NO = 999
REV_AT_EPOCH   = 413
BSTAR          = -.36410311E-1
MEAN_MOTION_DOT = -.2475939E-1
MEAN_MOTION_DDOT = 0

CCSDS_OMM_VERS = 2.0
CREATION_DATE  = 
ORIGINATOR     = 

OBJECT_NAME    = STARLINK-35521
OBJECT_ID      = 2025-225G
CENTER_NAME    = EARTH
REF_FRAME      = TEME
TIME_SYSTEM    = UTC
MEAN_ELEMENT_THEORY = SGP/SGP4

EPOCH          = 2025-10-28T16:00:07.000416
MEAN_MOTION    = 15.68992483
ECCENTRICITY   = .00013565
INCLINATION    = 53.1603
RA_OF_ASC_NODE = 62.1678
ARG_OF_PERICENTER = 75.2321
MEAN_ANOMALY   = 122.7801

EPHEMERIS_TYPE = 0
CLASSIFICATION_TYPE = U
NORAD_CAT_ID   = 65916
ELEMENT_SET_NO = 999
REV_AT_EPOCH   = 418
BSTAR          = -.18656782E-1
MEAN_MOTION_DOT = -.1942158E-1
MEAN_MOTION_DDOT = 0

CCSDS_OMM_VERS = 2.0
CREATION_DATE  = 
ORIGINATOR     = 

OBJECT_NAME    = STARLINK-35478
OBJECT_ID      = 2025-225H
CENTER_NAME    = EARTH
REF_FRAME      = TEME
TIME_SYSTEM    = UTC
MEAN_ELEMENT_THEORY = SGP/SGP4

EPOCH          = 2025-10-28T16:00:07.000416
MEAN_MOTION    = 15.68972685
ECCENTRICITY   = .00008997
INCLINATION    = 53.1599
RA_OF_ASC_NODE = 62.1599
ARG_OF_PERICENTER = 75.2744
MEAN_ANOMALY   = 126.5856

EPHEMERIS_TYPE = 0
CLASSIFICATION_TYPE = U
NORAD_CAT_ID   = 65917
ELEMENT_SET_NO = 999
REV_AT_EPOCH   = 413
BSTAR          = -.18447027E-1
MEAN_MOTION_DOT = -.1921093E-1
MEAN_MOTION_DDOT = 0

CCSDS_OMM_VERS = 2.0
CREATION_DATE  = 
ORIGINATOR     = 

OBJECT_NAME    = STARLINK-35516
OBJECT_ID      = 2025-225J
CENTER_NAME    = EARTH
REF_FRAME      = TEME
TIME_SYSTEM    = UTC
MEAN_ELEMENT_THEORY = SGP/SGP4

EPOCH          = 2025-10-28T16:00:07.000416
MEAN_MOTION    = 15.68991737
ECCENTRICITY   = .00012546
INCLINATION    = 53.1599
RA_OF_ASC_NODE = 62.1641
ARG_OF_PERICENTER = 69.2460
MEAN_ANOMALY   = 130.6826

EPHEMERIS_TYPE = 0
CLASSIFICATION_TYPE = U
NORAD_CAT_ID   = 65918
ELEMENT_SET_NO = 999
REV_AT_EPOCH   = 418
BSTAR          = -.18645957E-1
MEAN_MOTION_DOT = -.1941032E-1
MEAN_MOTION_DDOT = 0

